OBJECT_NAME,OBJECT_ID,EPOCH,MEAN_MOTION,ECCENTRICITY,INCLINATION,RA_OF_ASC_NODE,ARG_OF_PERICENTER,MEAN_ANOMALY,EPHEMERIS_TYPE,CLASSIFICATION_TYPE,NORAD_CAT_ID,ELEMENT_SET_NO,REV_AT_EPOCH,BSTAR,MEAN_MOTION_DOT,MEAN_MOTION_DDOT
EAGLEEYE,2024-149AS,2026-05-19T12:30:44.919936,15.65896026,.0001327,97.3729,231.3919,13.1482,346.9812,0,U,60508,999,9844,.63752E-3,.65047E-3,0
FLOCK 4BE-29,2024-149AT,2026-05-19T04:52:45.413760,15.43107524,.00035013,97.3810,224.6630,67.2905,292.8712,0,U,60509,999,9794,.23791997E-3,.10439E-3,0
TRANSPORTER-11 OBJECT AU,2024-149AU,2026-05-19T11:08:03.438816,15.39344335,.0004315,97.3730,222.9744,53.4295,306.7348,0,U,60510,999,9789,.2317E-3,.8967E-4,0
FLOCK 4BE-2,2024-149AV,2026-05-19T11:31:03.607104,15.49518575,.0003017,97.3821,226.0292,61.4585,298.6970,0,U,60511,999,9805,.62112E-3,.34234E-3,0
FLOCK 4BE-13,2024-149AW,2026-05-19T04:53:05.667648,15.41038690,.0004177,97.3722,223.3329,34.9227,325.2293,0,U,60512,999,9790,.20757936E-3,.8487E-4,0
FLOCK 4BE-27,2024-149AX,2026-05-19T11:54:11.448576,15.33897440,.0004929,97.3825,221.3452,62.1355,298.0387,0,U,60513,999,9774,.18899E-3,.6118E-4,0
FLOCK 4BE-9,2024-149AY,2026-05-19T04:21:03.144096,15.39852286,.0003628,97.3792,223.1925,69.6237,290.5398,0,U,60514,999,9785,.2489E-3,.9801E-4,0
FLOCK 4BE-6,2024-149BA,2026-05-19T04:30:36.002016,15.38717923,.00043258,97.3790,222.6104,62.7283,297.4403,0,U,60516,999,9781,.23903207E-3,.9065E-4,0
FLOCK 4BE-14,2024-149BB,2026-05-19T04:43:51.866976,15.40019414,.00050779,97.3698,222.7330,58.1154,302.0586,0,U,60517,999,9786,.23658343E-3,.9365E-4,0
FLOCK 4BE-1,2024-149BC,2026-05-19T12:03:12.511296,15.41555437,.0004628,97.3779,224.2167,57.6878,302.4817,0,U,60518,999,9795,.30601E-3,.12776E-3,0
FLOCK 4BE-28,2024-149BD,2026-05-19T11:51:27.146016,15.43821434,.0004634,97.3747,224.8450,51.4503,308.7160,0,U,60519,999,9801,.30538E-3,.13758E-3,0
IPERDRONE.0,2024-149BE,2026-05-19T12:35:57.621408,15.62533522,.0001053,97.3781,231.4166,0.4624,359.6635,0,U,60520,999,9843,.54459E-3,.4857E-3,0
TRANSPORTER-11 OBJECT BF,2024-149BF,2026-05-19T05:26:11.784192,15.73831356,.00013931,97.3784,233.1887,274.0718,86.0387,0,U,60521,999,9851,.69719974E-3,.99115E-3,0
CONNECTA IOT-2,2024-149BG,2026-05-19T11:37:10.158240,15.23701354,.0008006,97.3842,218.0703,72.3358,287.8753,0,U,60522,999,9752,.11787E-3,.2761E-4,0
PTD-R (TYVAK-0127),2024-149BH,2026-05-19T12:03:57.916224,15.89749172,.0001975,97.3784,237.6716,239.1441,120.9637,0,U,60523,999,9885,.55905E-3,.163491E-2,.11751E-4
CONNECTA IOT-4,2024-149BJ,2026-05-19T04:36:24.359904,15.40986633,.00056921,97.3800,223.2449,48.5303,311.6431,0,U,60524,999,9786,.30274939E-3,.12404E-3,0
ORESAT0.5,2024-149BK,2026-05-19T11:33:45.988128,15.43913771,.0005599,97.3722,225.0686,37.9349,322.2293,0,U,60525,999,9804,.27384E-3,.12367E-3,0
DEIMOS,2024-149BL,2026-05-19T04:11:09.482784,15.43106692,.00058366,97.3783,224.9110,44.9596,315.2124,0,U,60526,999,9797,.26392783E-3,.11595E-3,0
CUAVA-2,2024-149BM,2026-05-19T11:30:17.388288,15.35392958,.0007405,97.3726,220.9657,47.3741,312.8125,0,U,60527,999,9776,.2224E-3,.7571E-4,0
ERNST,2024-149BN,2026-05-19T11:49:07.316256,15.38382517,.0006779,97.3807,223.0152,51.5303,308.6549,0,U,60528,999,9786,.2644E-3,.9932E-4,0
TORO,2024-149BQ,2026-05-19T11:39:17.434080,14.96304570,.0001885,97.6791,214.6906,96.1583,263.9853,0,U,60530,999,9566,.14284E-3,.1557E-4,0
HYPSO-2,2024-149BR,2026-05-19T03:47:18.127680,14.98632558,.0002828,97.6827,215.8419,98.9165,261.2378,0,U,60531,999,9570,.17934197E-3,.2094E-4,0
LEMU NGE,2024-149BS,2026-05-19T11:16:08.377824,14.94816817,.0002612,97.6847,215.0114,105.6192,254.5317,0,U,60532,999,9566,.10726E-3,.1111E-4,0
LEMUR-2-STELLA,2024-149BT,2026-05-19T11:34:18.497856,15.11111115,.0002236,97.6736,221.8276,115.3049,244.8412,0,U,60533,999,9616,.39955E-3,.6629E-4,0
SATELIOT_2,2024-149BU,2026-05-19T11:19:02.383104,14.96238626,.000155,97.6831,214.9530,116.0433,244.0948,0,U,60534,999,9567,.101E-3,.1083E-4,0
NIGHTJAR,2024-149BV,2026-05-19T11:41:36.477600,14.98828800,.0002146,97.6842,216.5938,130.2244,229.9166,0,U,60535,999,13857,.17775E-3,.2086E-4,0
LEMUR-2-MARHISYAM,2024-149BW,2026-05-19T10:51:22.722912,15.10589928,.0002133,97.6873,222.2167,178.1617,181.9621,0,U,60536,999,9614,.42365E-3,.6932E-4,0
SATELIOT_4,2024-149BX,2026-05-19T11:43:10.848000,14.96553450,.0003619,97.6743,214.5163,115.9164,244.2431,0,U,60537,999,9568,.15458E-3,.1701E-4,0
PICO-02A021,2024-149BY,2026-05-18T16:12:38.281248,15.02946351,.00072925,97.6769,217.7704,111.5960,248.6043,0,U,60538,999,9530,.23425375E-3,.3088E-4,0
ICEYE-X43,2024-149BZ,2026-05-19T04:55:52.048128,14.99768716,.00052697,97.6763,216.5707,176.6967,183.4292,0,U,60539,999,9577,.15099496E-3,.1808E-4,0
