EAGLEEYE                
1 60508U 24149AS  26139.52135324  .00065047  00000+0  63752-3 0  9992
2 60508  97.3729 231.3919 0001327  13.1482 346.9812 15.65896026 98444
FLOCK 4BE-29            
1 60509U 24149AT  26139.20330340  .00010439  00000+0  23792-3 0  9998
2 60509  97.3810 224.6630 0003501  67.2905 292.8712 15.43107524 97943
TRANSPORTER-11 OBJECT AU
1 60510U 24149AU  26139.46392869  .00008967  00000+0  23170-3 0  9995
2 60510  97.3730 222.9744 0004315  53.4295 306.7348 15.39344335 97898
FLOCK 4BE-2             
1 60511U 24149AV  26139.47990286  .00034234  00000+0  62112-3 0  9999
2 60511  97.3821 226.0292 0003017  61.4585 298.6970 15.49518575 98051
FLOCK 4BE-13            
1 60512U 24149AW  26139.20353782  .00008487  00000+0  20758-3 0  9996
2 60512  97.3722 223.3329 0004177  34.9227 325.2293 15.41038690 97904
FLOCK 4BE-27            
1 60513U 24149AX  26139.49596584  .00006118  00000+0  18899-3 0  9999
2 60513  97.3825 221.3452 0004929  62.1355 298.0387 15.33897440 97744
FLOCK 4BE-9             
1 60514U 24149AY  26139.18128639  .00009801  00000+0  24890-3 0  9998
2 60514  97.3792 223.1925 0003628  69.6237 290.5398 15.39852286 97855
FLOCK 4BE-6             
1 60516U 24149BA  26139.18791669  .00009065  00000+0  23903-3 0  9995
2 60516  97.3790 222.6104 0004325  62.7283 297.4403 15.38717923 97814
FLOCK 4BE-14            
1 60517U 24149BB  26139.19712809  .00009365  00000+0  23658-3 0  9996
2 60517  97.3698 222.7330 0005077  58.1154 302.0586 15.40019414 97868
FLOCK 4BE-1             
1 60518U 24149BC  26139.50222814  .00012776  00000+0  30601-3 0  9990
2 60518  97.3779 224.2167 0004628  57.6878 302.4817 15.41555437 97954
FLOCK 4BE-28            
1 60519U 24149BD  26139.49406419  .00013758  00000+0  30538-3 0  9994
2 60519  97.3747 224.8450 0004634  51.4503 308.7160 15.43821434 98018
IPERDRONE.0             
1 60520U 24149BE  26139.52497247  .00048570  00000+0  54459-3 0  9997
2 60520  97.3781 231.4166 0001053   0.4624 359.6635 15.62533522 98433
TRANSPORTER-11 OBJECT BF
1 60521U 24149BF  26139.22652528  .00099115  00000+0  69720-3 0  9998
2 60521  97.3784 233.1887 0001393 274.0718  86.0387 15.73831356 98518
CONNECTA IOT-2          
1 60522U 24149BG  26139.48414535  .00002761  00000+0  11787-3 0  9992
2 60522  97.3842 218.0703 0008006  72.3358 287.8753 15.23701354 97527
PTD-R (TYVAK-0127)      
1 60523U 24149BH  26139.50275366  .00163491  11751-4  55905-3 0  9991
2 60523  97.3784 237.6716 0001975 239.1441 120.9637 15.89749172 98855
CONNECTA IOT-4          
1 60524U 24149BJ  26139.19194861  .00012404  00000+0  30275-3 0  9997
2 60524  97.3800 223.2449 0005692  48.5303 311.6431 15.40986633 97861
ORESAT0.5               
1 60525U 24149BK  26139.48178227  .00012367  00000+0  27384-3 0  9993
2 60525  97.3722 225.0686 0005599  37.9349 322.2293 15.43913771 98047
DEIMOS                  
1 60526U 24149BL  26139.17441531  .00011595  00000+0  26393-3 0  9992
2 60526  97.3783 224.9110 0005836  44.9596 315.2124 15.43106692 97973
CUAVA-2                 
1 60527U 24149BM  26139.47936792  .00007571  00000+0  22240-3 0  9990
2 60527  97.3726 220.9657 0007405  47.3741 312.8125 15.35392958 97760
ERNST                   
1 60528U 24149BN  26139.49244579  .00009932  00000+0  26440-3 0  9997
2 60528  97.3807 223.0152 0006779  51.5303 308.6549 15.38382517 97866
TORO                    
1 60530U 24149BQ  26139.48561845  .00001557  00000+0  14284-3 0  9995
2 60530  97.6791 214.6906 0001885  96.1583 263.9853 14.96304570 95668
HYPSO-2                 
1 60531U 24149BR  26139.15784870  .00002094  00000+0  17934-3 0  9997
2 60531  97.6827 215.8419 0002828  98.9165 261.2378 14.98632558 95705
LEMU NGE                
1 60532U 24149BS  26139.46954141  .00001111  00000+0  10726-3 0  9993
2 60532  97.6847 215.0114 0002612 105.6192 254.5317 14.94816817 95660
LEMUR-2-STELLA          
1 60533U 24149BT  26139.48215854  .00006629  00000+0  39955-3 0  9991
2 60533  97.6736 221.8276 0002236 115.3049 244.8412 15.11111115 96166
SATELIOT_2              
1 60534U 24149BU  26139.47155536  .00001083  00000+0  10100-3 0  9991
2 60534  97.6831 214.9530 0001550 116.0433 244.0948 14.96238626 95672
NIGHTJAR                
1 60535U 24149BV  26139.48722775  .00002086  00000+0  17775-3 0  9997
2 60535  97.6842 216.5938 0002146 130.2244 229.9166 14.98828800138577
LEMUR-2-MARHISYAM       
1 60536U 24149BW  26139.45234633  .00006932  00000+0  42365-3 0  9993
2 60536  97.6873 222.2167 0002133 178.1617 181.9621 15.10589928 96140
SATELIOT_4              
1 60537U 24149BX  26139.48832000  .00001701  00000+0  15458-3 0  9991
2 60537  97.6743 214.5163 0003619 115.9164 244.2431 14.96553450 95687
PICO-02A021             
1 60538U 24149BY  26138.67544307  .00003088  00000+0  23425-3 0  9995
2 60538  97.6769 217.7704 0007292 111.5960 248.6043 15.02946351 95309
ICEYE-X43               
1 60539U 24149BZ  26139.20546352  .00001808  00000+0  15099-3 0  9994
2 60539  97.6763 216.5707 0005269 176.6967 183.4292 14.99768716 95770
